SCD 1                   
1 22490U 93009B   26173.42093235  .00000318  00000+0  35983-4 0  9998
2 22490  24.9676 175.2600 0041856 193.0327 287.9203 14.46120222761877
TECHSAT 1B (GO-32)      
1 25397U 98043D   26173.68382816  .00000037  00000+0  36155-4 0  9994
2 25397  99.0069 166.5812 0001325 152.1038 208.0212 14.24429238452118
SCD 2                   
1 25504U 98060A   26173.82431208  .00000338  00000+0  43566-4 0  9997
2 25504  24.9963  37.3939 0016742 182.0762 226.0490 14.45527625461141
DLR-TUBSAT              
1 25757U 99029B   26173.46019642  .00000051  00000+0  24411-4 0  9997
2 25757  98.6695 169.1378 0013719 338.8496  21.2130 14.52427841434017
TERRA                   
1 25994U 99068A   26173.84897880  .00000252  00000+0  60347-4 0  9994
2 25994  97.9453 223.1708 0002020 172.1555 303.9588 14.61106688410430
MAROC-TUBSAT            
1 27004U 01056D   26173.76156192 -.00000023  00000+0  26894-4 0  9999
2 27004  99.8085 350.7261 0020478 127.4210 250.4346 13.70262610226952
AQUA                    
1 27424U 02022A   26173.81237367  .00000533  00000+0  11582-3 0  9991
2 27424  98.4279 143.2076 0000900  57.4018  55.8007 14.62164875284099
SHIYAN-1 (SY-1)         
1 28220U 04012A   26173.46793131  .00010236  00000+0  31489-3 0  9993
2 28220  97.8686 251.8797 0005111  14.8991 345.2400 15.33873275211904
AURA                    
1 28376U 04026A   26173.80615519  .00000575  00000+0  12612-3 0  9993
2 28376  98.3419 130.3060 0001169  78.6523 281.4808 14.61336052167032
IRS-P5 (CARTOSAT-1)     
1 28649U 05017A   26173.51406699  .00000821  00000+0  88189-4 0  9999
2 28649  97.5306 196.3370 0002500  73.8933 286.2561 14.91060221144612
SINAH 1                 
1 28893U 05043D   26173.79465138  .00000222  00000+0  51569-4 0  9999
2 28893  98.2867 308.1498 0013180 257.4937 102.4790 14.64160613101349
RESURS-DK 1             
1 29228U 06021A   26172.59646486  .00001045  00000+0  64802-4 0  9991
2 29228  69.9331 328.1395 0006912 290.7145  69.3280 15.13229164103245
ARIRANG-2 (KOMPSAT-2)   
1 29268U 06031A   26173.83837793  .00000217  00000+0  49133-4 0  9997
2 29268  97.8315 358.0116 0015800  58.4750  65.4106 14.64662846 62309
LAPAN-TUBSAT            
1 29709U 07001A   26173.84340020  .00000549  00000+0  69478-4 0  9990
2 29709  98.1350 173.1951 0012360 160.5982 199.5705 14.85956405 51992
HAIYANG-1B              
1 31113U 07010A   26173.66850147  .00000060  00000+0  38661-4 0  9996
2 31113  98.3497 155.3012 0013390 179.7808 180.3384 14.31028017  1425
COSMO-SKYMED 1          
1 31598U 07023A   26173.81612750  .00002424  00000+0  21519-3 0  9999
2 31598  97.8855   5.7189 0001676  94.6726 265.4687 14.97125084 30635
TERRASAR-X              
1 31698U 07026A   26173.52705339  .00000250  00000+0  15087-4 0  9996
2 31698  97.4452 181.1561 0001571  90.2643 269.8772 15.19153084 54031
WORLDVIEW-1 (WV-1)      
1 32060U 07041A   26173.67506911  .00004573  00000+0  18996-3 0  9991
2 32060  97.3877 293.3402 0001699   3.2481 356.8767 15.24316562 43712
YAOGAN-3                
1 32289U 07055A   26173.83254715  .00001646  00000+0  17301-3 0  9996
2 32289  97.8151 203.6544 0001834  83.2187 276.9240 14.90797763  6713
COSMO-SKYMED 2          
1 32376U 07059A   26173.83192400  .00000281  00000+0  41870-4 0  9992
2 32376  97.8888 357.3479 0001330  89.5984 270.5382 14.82158715  2842
RADARSAT-2              
1 32382U 07061A   26173.84539543  .00000041  00000+0  32764-4 0  9992
2 32382  98.5782 180.6972 0001308  85.5170 274.6162 14.29982686966767
CARTOSAT-2A             
1 32783U 08021A   26173.79622134  .00000223  00000+0  36679-4 0  9998
2 32783  97.7629 222.3137 0013308  92.3387 267.9348 14.79244912979638
HUANJING 1A (HJ-1A)     
1 33320U 08041A   26173.83022497  .00000453  00000+0  60386-4 0  9996
2 33320  97.6689 159.4502 0020316 117.2741 243.0546 14.83994819959248
HUANJING 1B (HJ-1B)     
1 33321U 08041B   26173.86932272  .00001170  00000+0  14753-3 0  9994
2 33321  97.6525 162.6425 0036592 162.2828 197.9672 14.83326262959256
GEOEYE 1                
1 33331U 08042A   26173.82187431  .00000287  00000+0  62741-4 0  9990
2 33331  98.1234 247.6818 0005191  55.7524 304.4170 14.64729861950979
THEOS                   
1 33396U 08049A   26173.81669171 -.00000325  00000+0 -13244-3 0  9991
2 33396  98.5566 230.9178 0001198  78.5216 281.6095 14.20132629918765
COSMO-SKYMED 3          
1 33412U 08054A   26173.78715779  .00002412  00000+0  16531-3 0  9997
2 33412  97.8285  32.4503 0013941 245.2344 114.7433 15.06979942957784
YAOGAN-4                
1 33446U 08061A   26173.56411475  .00000681  00000+0  89829-4 0  9991
2 33446  97.9306 107.0347 0015552  56.6189 303.6511 14.83208469946464
GOSAT (IBUKI)           
1 33492U 09002A   26173.59292776  .00000077  00000+0  22004-4 0  9993
2 33492  98.0894 284.6065 0001451  83.5603 276.5767 14.67539383932258
DEIMOS-1                
1 35681U 09041A   26173.81600355  .00000723  00000+0  11391-3 0  9993
2 35681  97.7415 330.7997 0001987 123.9454 236.1945 14.75243388907718
